{"type": "FeatureCollection", "crs": {"type": "name", "properties": {"name": "urn:ogc:def:crs:OGC:1.3:CRS84"}}, "provenance": {"administrative_unit": "Nan", "local_name": "จังหวัดน่าน", "country": "Thailand", "iso_3166_2": "TH-55", "admin_level": "Province", "geometry_type": "Polygon", "geometry_valid": true, "is_rectangular_frame": false, "n_vertices": 421, "area_km2": 11721.9, "perimeter_km": 571.8, "reference_area_km2": 11472.1, "area_deviation_pct": 2.18, "area_within_tolerance": true, "bounds_lon_lat": [100.3481, 18.0112, 101.3264, 19.6136], "crs": "EPSG:4326", "n_stations": 14, "n_stations_inside": 14, "all_stations_inside": true, "source_file_hash": "sha256:22d0e3ad85eb3e27f17cabf8ba2d50e554fbc27a87796ff891d958185da62fb5", "source_url": "https://raw.githubusercontent.com/nvkelso/natural-earth-vector/master/geojson/ne_10m_admin_1_states_provinces.geojson", "source_title": "Natural Earth 10m Admin-1 states and provinces", "source_scale": "1:10,000,000 (generalised)", "accessed_utc": "2026-09-02T01:00:06+00:00", "verified": true}, "features": [{"type": "Feature", "properties": {"featurecla": "Admin-1 states provinces", "scalerank": 7, "adm1_code": "THA-393", "diss_me": 393, "iso_3166_2": "TH-55", "wikipedia": null, "iso_a2": "TH", "adm0_sr": 1, "name": "Nan", "name_alt": null, "name_local": "จังหวัดน่าน", "type": "Changwat", "type_en": "Province", "code_local": null, "code_hasc": "TH.NA", "note": null, "hasc_maybe": null, "region": "Northern", "region_cod": null, "provnum_ne": 65, "gadm_level": 1, "check_me": 20, "datarank": 5, "abbrev": null, "postal": "NA", "area_sqkm": 0, "sameascity": 7, "labelrank": 7, "name_len": 3, "mapcolor9": 8, "mapcolor13": 1, "fips": "TH04", "fips_alt": null, "woe_id": 2347131, "woe_label": "Nan, TH, Thailand", "woe_name": "Nan", "latitude": 18.8264, "longitude": 100.837, "sov_a3": "THA", "adm0_a3": "THA", "adm0_label": 2, "admin": "Thailand", "geonunit": "Thailand", "gu_a3": "THA", "gn_id": 1608451, "gn_name": "Changwat Nan", "gns_id": -3251680, "gns_name": "Nan, Changwat", "gn_level": 1, "gn_region": null, "gn_a1_code": "TH.04", "region_sub": null, "sub_code": null, "gns_level": 1, "gns_lang": "tha", "gns_adm1": "TH04", "gns_region": null, "min_label": 8, "max_label": 11, "min_zoom": 8, "wikidataid": "Q244698", "name_ar": "محافظة نان", "name_bn": "নান", "name_de": "Nan", "name_en": "Nan", "name_es": "Nan", "name_fr": "Nan", "name_el": "Ναν", "name_hi": "नान प्रान्त", "name_hu": "Nan", "name_id": "Nan", "name_it": "Nan", "name_ja": "ナーン県", "name_ko": "난", "name_nl": "Changwat Nan", "name_pl": "Prowincja Nan", "name_pt": "Nan", "name_ru": "Нан", "name_sv": "Nan", "name_tr": "Nan ili", "name_vi": "Nan", "name_zh": "难府", "ne_id": 1159309177, "name_he": "נאן", "name_uk": "Нан", "name_ur": "صوبہ نان", "name_fa": "نان", "name_zht": "難府", "FCLASS_ISO": null, "FCLASS_US": null, "FCLASS_FR": null, "FCLASS_RU": null, "FCLASS_ES": null, "FCLASS_CN": null, "FCLASS_TW": null, "FCLASS_IN": null, "FCLASS_NP": null, "FCLASS_PK": null, "FCLASS_DE": null, "FCLASS_GB": null, "FCLASS_BR": null, "FCLASS_IL": null, "FCLASS_PS": null, "FCLASS_SA": null, "FCLASS_EG": null, "FCLASS_MA": null, "FCLASS_PT": null, "FCLASS_AR": null, "FCLASS_JP": null, "FCLASS_KO": null, "FCLASS_VN": null, "FCLASS_TR": null, "FCLASS_ID": null, "FCLASS_PL": null, "FCLASS_GR": null, "FCLASS_IT": null, "FCLASS_NL": null, "FCLASS_SE": null, "FCLASS_BD": null, "FCLASS_UA": null, "FCLASS_TLC": null}, "geometry": {"type": "Polygon", "coordinates": [[[100.879816, 19.613584], [100.885656, 19.612447], [100.974281, 19.613481], [101.002548, 19.610613], [101.024303, 19.602861], [101.068228, 19.577127], [101.095824, 19.567282], [101.124659, 19.565112], [101.152668, 19.568367], [101.176852, 19.574749], [101.188324, 19.580744], [101.197316, 19.586868], [101.207961, 19.589555], [101.225015, 19.585214], [101.238244, 19.578186], [101.246202, 19.570279], [101.25106, 19.560306], [101.254884, 19.547154], [101.256951, 19.522789], [101.251731, 19.494444], [101.238244, 19.472301], [101.2153, 19.466358], [101.192872, 19.452793], [101.177782, 19.417214], [101.172356, 19.376389], [101.178454, 19.346624], [101.185017, 19.341999], [101.201967, 19.338666], [101.207755, 19.334687], [101.211269, 19.326367], [101.210907, 19.320631], [101.209253, 19.315592], [101.209512, 19.309417], [101.229872, 19.225804], [101.226772, 19.167152], [101.229149, 19.143587], [101.235712, 19.12811], [101.247442, 19.115785], [101.291161, 19.078992], [101.317877, 19.05013], [101.326404, 19.020546], [101.283926, 18.981478], [101.277001, 18.96706], [101.267286, 18.934453], [101.257261, 18.919492], [101.232921, 18.892724], [101.224911, 18.874766], [101.223309, 18.855491], [101.228632, 18.795624], [101.223981, 18.778545], [101.209202, 18.746325], [101.205843, 18.730072], [101.211269, 18.711908], [101.234782, 18.68948], [101.240104, 18.673642], [101.23473, 18.658449], [101.221914, 18.642042], [101.194112, 18.616798], [101.185327, 18.612534], [101.167757, 18.606359], [101.160884, 18.599796], [101.158145, 18.589978], [101.159127, 18.567705], [101.155355, 18.556724], [101.142074, 18.544296], [101.077892, 18.510422], [101.073809, 18.505771], [101.071949, 18.495668], [101.064714, 18.476419], [101.035621, 18.447841], [101.030298, 18.427791], [101.037016, 18.410454], [101.05102, 18.39247], [101.074089, 18.371613], [101.067454, 18.362988], [101.004305, 18.314541], [100.966788, 18.291571], [100.919453, 18.249946], [100.90674, 18.230231], [100.905293, 18.22726], [100.90519, 18.224133], [100.90674, 18.221705], [100.909324, 18.219999], [100.911701, 18.217054], [100.912735, 18.21248], [100.910254, 18.20354], [100.907671, 18.198889], [100.902658, 18.194394], [100.88514, 18.18225], [100.880954, 18.17747], [100.880179, 18.173749], [100.882659, 18.171604], [100.888705, 18.1684], [100.891651, 18.165868], [100.893356, 18.162225], [100.893201, 18.15605], [100.891496, 18.152536], [100.888964, 18.149978], [100.871187, 18.139849], [100.866949, 18.136077], [100.864366, 18.132408], [100.860335, 18.121142], [100.848036, 18.098379], [100.845245, 18.090343], [100.84261, 18.086545], [100.839199, 18.083909], [100.835479, 18.082747], [100.831758, 18.08192], [100.809744, 18.066675], [100.769074, 18.031845], [100.760548, 18.026058], [100.756362, 18.025412], [100.739102, 18.026109], [100.722359, 18.028977], [100.718173, 18.029132], [100.697399, 18.026419], [100.688873, 18.026574], [100.685255, 18.027815], [100.679829, 18.03244], [100.677039, 18.034403], [100.674093, 18.035644], [100.670682, 18.036651], [100.654714, 18.037478], [100.647893, 18.038977], [100.644327, 18.039416], [100.628824, 18.038873], [100.625414, 18.039597], [100.613425, 18.039519], [100.585261, 18.050811], [100.57658, 18.051172], [100.572187, 18.049157], [100.563919, 18.040605], [100.55038, 18.030476], [100.54547, 18.028745], [100.539838, 18.028616], [100.527384, 18.02983], [100.522371, 18.029081], [100.518444, 18.025722], [100.51524, 18.017919], [100.492399, 18.016937], [100.480927, 18.014585], [100.476586, 18.014508], [100.460876, 18.01766], [100.456225, 18.017298], [100.451109, 18.016007], [100.444598, 18.013216], [100.439792, 18.011717], [100.435296, 18.011175], [100.430955, 18.011666], [100.427855, 18.012673], [100.422119, 18.015955], [100.424289, 18.02766], [100.405789, 18.12029], [100.405479, 18.131168], [100.408166, 18.133286], [100.41137, 18.134888], [100.418398, 18.137369], [100.424289, 18.14065], [100.432661, 18.146412], [100.435865, 18.147833], [100.447544, 18.150443], [100.452349, 18.155326], [100.457362, 18.163543], [100.466044, 18.185609], [100.469248, 18.198631], [100.472555, 18.221317], [100.47395, 18.226821], [100.482477, 18.245605], [100.485422, 18.250798], [100.495344, 18.263356], [100.503251, 18.276042], [100.504801, 18.281417], [100.504491, 18.285783], [100.503096, 18.288729], [100.496895, 18.29692], [100.495964, 18.301855], [100.495654, 18.308599], [100.49736, 18.331052], [100.49674, 18.339346], [100.497825, 18.342938], [100.499323, 18.345676], [100.50077, 18.346839], [100.505731, 18.34994], [100.513689, 18.356322], [100.515963, 18.35888], [100.51834, 18.362368], [100.537254, 18.406655], [100.540509, 18.417687], [100.541905, 18.427067], [100.54113, 18.43456], [100.541285, 18.448668], [100.540354, 18.455773], [100.539269, 18.461251], [100.535083, 18.47094], [100.533068, 18.473472], [100.530226, 18.475178], [100.526195, 18.47572], [100.509297, 18.475333], [100.506351, 18.47603], [100.504491, 18.476676], [100.502011, 18.477968], [100.500254, 18.479182], [100.4986, 18.480629], [100.495344, 18.485694], [100.493949, 18.488639], [100.491779, 18.491223], [100.488988, 18.493032], [100.485267, 18.494169], [100.481082, 18.494737], [100.47271, 18.494375], [100.460773, 18.492463], [100.456535, 18.492463], [100.444443, 18.494582], [100.440412, 18.494479], [100.436692, 18.493807], [100.432971, 18.492567], [100.423669, 18.487632], [100.420413, 18.486805], [100.416693, 18.487399], [100.413747, 18.488743], [100.411577, 18.491146], [100.40982, 18.493859], [100.40858, 18.49683], [100.400415, 18.549876], [100.398968, 18.553493], [100.397572, 18.556413], [100.387806, 18.568583], [100.386565, 18.575068], [100.386255, 18.580262], [100.391371, 18.613283], [100.392456, 18.617081], [100.394007, 18.620156], [100.396177, 18.622507], [100.402585, 18.626744], [100.405479, 18.629948], [100.405686, 18.632946], [100.404445, 18.635788], [100.401758, 18.637674], [100.398348, 18.639276], [100.39442, 18.640516], [100.382018, 18.641989], [100.378504, 18.643229], [100.375248, 18.646821], [100.371993, 18.652686], [100.367962, 18.664184], [100.366722, 18.672814], [100.366722, 18.679196], [100.367187, 18.683718], [100.369047, 18.691753], [100.371373, 18.698471], [100.374783, 18.70444], [100.378814, 18.710021], [100.38548, 18.716946], [100.388116, 18.718961], [100.394317, 18.726738], [100.397883, 18.735084], [100.397417, 18.739502], [100.395092, 18.742371], [100.391216, 18.74343], [100.38269, 18.744696], [100.378039, 18.746711], [100.374008, 18.750251], [100.369202, 18.759217], [100.367962, 18.76671], [100.368685, 18.776451], [100.368272, 18.781567], [100.366205, 18.7849], [100.35866, 18.787639], [100.354113, 18.789706], [100.349048, 18.795287], [100.348118, 18.800455], [100.348532, 18.804176], [100.352562, 18.815079], [100.360831, 18.840607], [100.419638, 18.935925], [100.425064, 18.93993], [100.428165, 18.941428], [100.431731, 18.942436], [100.435761, 18.943056], [100.458602, 18.942307], [100.465424, 18.944374], [100.47395, 18.948482], [100.489918, 18.959282], [100.496429, 18.965173], [100.499995, 18.969333], [100.501235, 18.974708], [100.50139, 18.978403], [100.500925, 18.982253], [100.499685, 18.985663], [100.497825, 18.988221], [100.495189, 18.990417], [100.488213, 18.99313], [100.484337, 18.994061], [100.475656, 18.994913], [100.462013, 18.995068], [100.459946, 19.000313], [100.460256, 19.009744], [100.468834, 19.034291], [100.473795, 19.044548], [100.478446, 19.050672], [100.481857, 19.05199], [100.485887, 19.052584], [100.494983, 19.05292], [100.500925, 19.052584], [100.508212, 19.051447], [100.515343, 19.049354], [100.522474, 19.046512], [100.540665, 19.036125], [100.548881, 19.03026], [100.551982, 19.028761], [100.555857, 19.027392], [100.559991, 19.026488], [100.564849, 19.026772], [100.570637, 19.028529], [100.572187, 19.031552], [100.57167, 19.034652], [100.556322, 19.052274], [100.554462, 19.054961], [100.552912, 19.057933], [100.551982, 19.061266], [100.551672, 19.064831], [100.553532, 19.070568], [100.556322, 19.077544], [100.563144, 19.090515], [100.56795, 19.09439], [100.57229, 19.096173], [100.576011, 19.096483], [100.579732, 19.097181], [100.590791, 19.100643], [100.594615, 19.101444], [100.598077, 19.102452], [100.603968, 19.105552], [100.611565, 19.110643], [100.625827, 19.123174], [100.630995, 19.130073], [100.632545, 19.135266], [100.630375, 19.137747], [100.627584, 19.139891], [100.62438, 19.141648], [100.621952, 19.143586], [100.619936, 19.146067], [100.618076, 19.153121], [100.616836, 19.165549], [100.61606, 19.169347], [100.614665, 19.172603], [100.612908, 19.175548], [100.611565, 19.178675], [100.610634, 19.182137], [100.610634, 19.186168], [100.61203, 19.198234], [100.61172, 19.206528], [100.611099, 19.210688], [100.610169, 19.214486], [100.608929, 19.217587], [100.602108, 19.229111], [100.598232, 19.238904], [100.596217, 19.245596], [100.595442, 19.250091], [100.604433, 19.287841], [100.605984, 19.304662], [100.608464, 19.316289], [100.608464, 19.320113], [100.607689, 19.323653], [100.604898, 19.329777], [100.602573, 19.332179], [100.599317, 19.333497], [100.595442, 19.333859], [100.58769, 19.333807], [100.584279, 19.334892], [100.581489, 19.336934], [100.576631, 19.345693], [100.574047, 19.347941], [100.57074, 19.349104], [100.566864, 19.34931], [100.563609, 19.348096], [100.561438, 19.34546], [100.559578, 19.342515], [100.557253, 19.340189], [100.553997, 19.339207], [100.549966, 19.339104], [100.541905, 19.340809], [100.535704, 19.343445], [100.529967, 19.347166], [100.527332, 19.349465], [100.519581, 19.360188], [100.51493, 19.369697], [100.513689, 19.374167], [100.512087, 19.388843], [100.512863, 19.39414], [100.514413, 19.398454], [100.51865, 19.40357], [100.545936, 19.42375], [100.553067, 19.435687], [100.559578, 19.451242], [100.563454, 19.458425], [100.566709, 19.463386], [100.572187, 19.467649], [100.578492, 19.470646], [100.582574, 19.471732], [100.586295, 19.47367], [100.590326, 19.476202], [100.591721, 19.479535], [100.590894, 19.483178], [100.58986, 19.485917], [100.585055, 19.493953], [100.574758, 19.508347], [100.585984, 19.525967], [100.607016, 19.540927], [100.633268, 19.542167], [100.714762, 19.512454], [100.729231, 19.50465], [100.738171, 19.495039], [100.745509, 19.485013], [100.753002, 19.48243], [100.762614, 19.495478], [100.808451, 19.536535], [100.849017, 19.582527], [100.861213, 19.602603], [100.865037, 19.607151], [100.874597, 19.612912], [100.879816, 19.613584]]]}}]}